{
  "links" : {
    "next" : "https://api.nasa.gov/neo/rest/v1/neo/browse?page=9&size=20&api_key=jqAGvNAwUIBu4fl9FSOjdm3V4F7hIglRzI6pdX9d",
    "prev" : "https://api.nasa.gov/neo/rest/v1/neo/browse?page=7&size=20&api_key=jqAGvNAwUIBu4fl9FSOjdm3V4F7hIglRzI6pdX9d",
    "self" : "https://api.nasa.gov/neo/rest/v1/neo/browse?page=8&size=20&api_key=jqAGvNAwUIBu4fl9FSOjdm3V4F7hIglRzI6pdX9d"
  },
  "page" : {
    "size" : 20,
    "total_elements" : 20750,
    "total_pages" : 1038,
    "number" : 8
  },
  "near_earth_objects" : [ {
    "links" : {
      "self" : "https://api.nasa.gov/neo/rest/v1/neo/3102705?api_key=jqAGvNAwUIBu4fl9FSOjdm3V4F7hIglRzI6pdX9d"
    },
    "neo_reference_id" : "3102705",
    "name" : "(2001 YD1)",
    "designation" : "2001 YD1",
    "nasa_jpl_url" : "http://ssd.jpl.nasa.gov/sbdb.cgi?sstr=3102705",
    "absolute_magnitude_h" : 24.4,
    "estimated_diameter" : {
      "kilometers" : {
        "estimated_diameter_min" : 0.0350392641,
        "estimated_diameter_max" : 0.0783501764
      },
      "meters" : {
        "estimated_diameter_min" : 35.0392641108,
        "estimated_diameter_max" : 78.3501764334
      },
      "miles" : {
        "estimated_diameter_min" : 0.0217723826,
        "estimated_diameter_max" : 0.0486845275
      },
      "feet" : {
        "estimated_diameter_min" : 114.9582192654,
        "estimated_diameter_max" : 257.0543928497
      }
    },
    "is_potentially_hazardous_asteroid" : false,
    "close_approach_data" : [ {
      "close_approach_date" : "2001-12-11",
      "epoch_date_close_approach" : 1008057600000,
      "relative_velocity" : {
        "kilometers_per_second" : "13.0091396178",
        "kilometers_per_hour" : "46832.9026239036",
        "miles_per_hour" : "29100.1444109472"
      },
      "miss_distance" : {
        "astronomical" : "0.01782375",
        "lunar" : "6.9334387779",
        "kilometers" : "2666395",
        "miles" : "1656821.125"
      },
      "orbiting_body" : "Earth"
    }, {
      "close_approach_date" : "2003-06-28",
      "epoch_date_close_approach" : 1056783600000,
      "relative_velocity" : {
        "kilometers_per_second" : "24.0247605955",
        "kilometers_per_hour" : "86489.1381436754",
        "miles_per_hour" : "53740.9869759966"
      },
      "miss_distance" : {
        "astronomical" : "0.3984942988",
        "lunar" : "155.0142822266",
        "kilometers" : "59613900",
        "miles" : "37042360"
      },
      "orbiting_body" : "Earth"
    }, {
      "close_approach_date" : "2055-12-16",
      "epoch_date_close_approach" : 2712556800000,
      "relative_velocity" : {
        "kilometers_per_second" : "9.3977980522",
        "kilometers_per_hour" : "33832.0729880988",
        "miles_per_hour" : "21021.9344630773"
      },
      "miss_distance" : {
        "astronomical" : "0.0627048351",
        "lunar" : "24.3921813965",
        "kilometers" : "9380510",
        "miles" : "5828779"
      },
      "orbiting_body" : "Mars"
    } ],
    "orbital_data" : {
      "orbit_id" : "9",
      "orbit_determination_date" : "2017-04-06 09:15:41",
      "first_observation_date" : "2001-12-17",
      "last_observation_date" : "2001-12-24",
      "data_arc_in_days" : 7,
      "observations_used" : 33,
      "orbit_uncertainty" : "8",
      "minimum_orbit_intersection" : ".0165037",
      "jupiter_tisserand_invariant" : "4.436",
      "epoch_osculation" : "2452263.5",
      "eccentricity" : ".4645463611123201",
      "semi_major_axis" : "1.488275621233632",
      "inclination" : "7.035611686036747",
      "ascending_node_longitude" : "85.94447467793333",
      "orbital_period" : "663.1678727785095",
      "perihelion_distance" : ".7969025970573703",
      "perihelion_argument" : "285.2009606757691",
      "aphelion_distance" : "2.179648645409893",
      "perihelion_time" : "2452207.603220159339",
      "mean_anomaly" : "30.34350964308363",
      "mean_motion" : ".5428489750139568",
      "equinox" : "J2000",
      "orbit_class" : {
        "orbit_class_type" : "APO",
        "orbit_class_range" : "a (semi-major axis) > 1.0 AU; q (perihelion) < 1.017 AU",
        "orbit_class_description" : "Near-Earth asteroid orbits which cross the Earth’s orbit similar to that of 1862 Apollo"
      }
    },
    "is_sentry_object" : false
  }, {
    "links" : {
      "self" : "https://api.nasa.gov/neo/rest/v1/neo/3102710?api_key=jqAGvNAwUIBu4fl9FSOjdm3V4F7hIglRzI6pdX9d"
    },
    "neo_reference_id" : "3102710",
    "name" : "(2001 YO2)",
    "designation" : "2001 YO2",
    "nasa_jpl_url" : "http://ssd.jpl.nasa.gov/sbdb.cgi?sstr=3102710",
    "absolute_magnitude_h" : 21.0,
    "estimated_diameter" : {
      "kilometers" : {
        "estimated_diameter_min" : 0.1677084622,
        "estimated_diameter_max" : 0.3750075218
      },
      "meters" : {
        "estimated_diameter_min" : 167.7084621628,
        "estimated_diameter_max" : 375.0075217981
      },
      "miles" : {
        "estimated_diameter_min" : 0.1042091748,
        "estimated_diameter_max" : 0.2330187988
      },
      "feet" : {
        "estimated_diameter_min" : 550.2246310023,
        "estimated_diameter_max" : 1230.3396778159
      }
    },
    "is_potentially_hazardous_asteroid" : false,
    "close_approach_data" : [ {
      "close_approach_date" : "2000-09-21",
      "epoch_date_close_approach" : 969519600000,
      "relative_velocity" : {
        "kilometers_per_second" : "45.1417074937",
        "kilometers_per_hour" : "162510.1469774154",
        "miles_per_hour" : "100977.4854927168"
      },
      "miss_distance" : {
        "astronomical" : "0.0789347021",
        "lunar" : "30.7055988312",
        "kilometers" : "11808463",
        "miles" : "7337439"
      },
      "orbiting_body" : "Merc"
    }, {
      "close_approach_date" : "2001-12-29",
      "epoch_date_close_approach" : 1009612800000,
      "relative_velocity" : {
        "kilometers_per_second" : "26.8165751692",
        "kilometers_per_hour" : "96539.6706091445",
        "miles_per_hour" : "59985.9969959987"
      },
      "miss_distance" : {
        "astronomical" : "0.2526854848",
        "lunar" : "98.2946548462",
        "kilometers" : "37801212",
        "miles" : "23488584"
      },
      "orbiting_body" : "Earth"
    }, {
      "close_approach_date" : "2004-12-20",
      "epoch_date_close_approach" : 1103529600000,
      "relative_velocity" : {
        "kilometers_per_second" : "33.3836918257",
        "kilometers_per_hour" : "120181.2905726078",
        "miles_per_hour" : "74675.9802449629"
      },
      "miss_distance" : {
        "astronomical" : "0.1896396192",
        "lunar" : "73.7698059082",
        "kilometers" : "28369682",
        "miles" : "17628104"
      },
      "orbiting_body" : "Earth"
    } ],
    "orbital_data" : {
      "orbit_id" : "11",
      "orbit_determination_date" : "2017-04-06 09:15:40",
      "first_observation_date" : "2001-12-18",
      "last_observation_date" : "2002-01-11",
      "data_arc_in_days" : 24,
      "observations_used" : 25,
      "orbit_uncertainty" : "8",
      "minimum_orbit_intersection" : ".154028",
      "jupiter_tisserand_invariant" : "4.505",
      "epoch_osculation" : "2452268.5",
      "eccentricity" : ".6882752344705655",
      "semi_major_axis" : "1.294112667694038",
      "inclination" : "48.01586052268148",
      "ascending_node_longitude" : "266.2201806587721",
      "orbital_period" : "537.720457524723",
      "perihelion_distance" : ".4034069679055951",
      "perihelion_argument" : "311.4876761102832",
      "aphelion_distance" : "2.184818367482482",
      "perihelion_time" : "2452336.880307680068",
      "mean_anomaly" : "314.219873132328",
      "mean_motion" : ".6694928470030326",
      "equinox" : "J2000",
      "orbit_class" : {
        "orbit_class_type" : "APO",
        "orbit_class_range" : "a (semi-major axis) > 1.0 AU; q (perihelion) < 1.017 AU",
        "orbit_class_description" : "Near-Earth asteroid orbits which cross the Earth’s orbit similar to that of 1862 Apollo"
      }
    },
    "is_sentry_object" : false
  } ]
}